{
  "type": "FeatureCollection",
  "features": [
    {
      "type": "Feature",
      "properties": {
        "norad_id": 41866,
        "name": "GOES 16",
        "group": "weather",
        "lat": -0.04204344253118137,
        "lon": -60.432454663588985,
        "alt_km": 35774.90983463914,
        "timestamp": "2025-12-24T20:42:20.661851+00:00",
        "meta_object_name": "GOES 16",
        "meta_object_id": "2016-071A",
        "meta_epoch": "2025-12-24T04:56:56.433408",
        "meta_mean_motion": 1.00271814,
        "meta_eccentricity": 0.00031453,
        "meta_inclination": 0.0748,
        "meta_ra_of_asc_node": 102.0172,
        "meta_arg_of_pericenter": 164.4838,
        "meta_mean_anomaly": 156.055,
        "meta_ephemeris_type": 0,
        "meta_classification_type": "U",
        "meta_norad_cat_id": 41866,
        "meta_element_set_no": 999,
        "meta_rev_at_epoch": 3334,
        "meta_bstar": 0,
        "meta_mean_motion_dot": -7e-07,
        "meta_mean_motion_ddot": 0,
        "tle_line1": "1 41866U 16071A   25358.20620872 -.00000070  00000+0  00000+0 0  9996",
        "tle_line2": "2 41866   0.0748 102.0172 0003145 164.4838 156.0550  1.00271814 33345"
      },
      "geometry": {
        "type": "Point",
        "coordinates": [
          -60.432454663588985,
          -0.04204344253118137
        ]
      }
    },
    {
      "type": "Feature",
      "properties": {
        "norad_id": 41882,
        "name": "FENGYUN 4A",
        "group": "weather",
        "lat": 1.8822551849802465,
        "lon": 167.78666844102648,
        "alt_km": 35778.14192254484,
        "timestamp": "2025-12-24T20:42:20.661864+00:00",
        "meta_object_name": "FENGYUN 4A",
        "meta_object_id": "2016-077A",
        "meta_epoch": "2025-12-24T06:50:26.113344",
        "meta_mean_motion": 1.00263706,
        "meta_eccentricity": 0.00044804,
        "meta_inclination": 1.8765,
        "meta_ra_of_asc_node": 82.2781,
        "meta_arg_of_pericenter": 143.0978,
        "meta_mean_anomaly": 93.9313,
        "meta_ephemeris_type": 0,
        "meta_classification_type": "U",
        "meta_norad_cat_id": 41882,
        "meta_element_set_no": 999,
        "meta_rev_at_epoch": 3317,
        "meta_bstar": 0,
        "meta_mean_motion_dot": -3.37e-06,
        "meta_mean_motion_ddot": 0,
        "tle_line1": "1 41882U 16077A   25358.28502446 -.00000337  00000+0  00000+0 0  9990",
        "tle_line2": "2 41882   1.8765  82.2781 0004480 143.0978  93.9313  1.00263706 33175"
      },
      "geometry": {
        "type": "Point",
        "coordinates": [
          167.78666844102648,
          1.8822551849802465
        ]
      }
    },
    {
      "type": "Feature",
      "properties": {
        "norad_id": 41884,
        "name": "CYGFM05",
        "group": "weather",
        "lat": -6.260211804765152,
        "lon": -41.1168291948923,
        "alt_km": 418.4586158819029,
        "timestamp": "2025-12-24T20:42:20.661875+00:00",
        "meta_object_name": "CYGFM05",
        "meta_object_id": "2016-078A",
        "meta_epoch": "2025-12-24T05:16:32.899872",
        "meta_mean_motion": 15.48056923,
        "meta_eccentricity": 0.00106253,
        "meta_inclination": 34.9606,
        "meta_ra_of_asc_node": 332.1186,
        "meta_arg_of_pericenter": 282.376,
        "meta_mean_anomaly": 77.5773,
        "meta_ephemeris_type": 0,
        "meta_classification_type": "U",
        "meta_norad_cat_id": 41884,
        "meta_element_set_no": 999,
        "meta_rev_at_epoch": 50154,
        "meta_bstar": 0.00039063872,
        "meta_mean_motion_dot": 0.00021143,
        "meta_mean_motion_ddot": 0,
        "tle_line1": "1 41884U 16078A   25358.21982523  .00021143  00000+0  39064-3 0  9997",
        "tle_line2": "2 41884  34.9606 332.1186 0010625 282.3760  77.5773 15.48056923501545"
      },
      "geometry": {
        "type": "Point",
        "coordinates": [
          -41.1168291948923,
          -6.260211804765152
        ]
      }
    },
    {
      "type": "Feature",
      "properties": {
        "norad_id": 41885,
        "name": "CYGFM04",
        "group": "weather",
        "lat": -6.2195241836038315,
        "lon": -66.64291972384869,
        "alt_km": 408.73785110683457,
        "timestamp": "2025-12-24T20:42:20.661885+00:00",
        "meta_object_name": "CYGFM04",
        "meta_object_id": "2016-078B",
        "meta_epoch": "2025-12-24T03:45:30.157056",
        "meta_mean_motion": 15.5083976,
        "meta_eccentricity": 0.00092946,
        "meta_inclination": 34.9353,
        "meta_ra_of_asc_node": 306.9755,
        "meta_arg_of_pericenter": 306.3575,
        "meta_mean_anomaly": 53.6289,
        "meta_ephemeris_type": 0,
        "meta_classification_type": "U",
        "meta_norad_cat_id": 41885,
        "meta_element_set_no": 999,
        "meta_rev_at_epoch": 50171,
        "meta_bstar": 0.00041478685,
        "meta_mean_motion_dot": 0.00024779,
        "meta_mean_motion_ddot": 0,
        "tle_line1": "1 41885U 16078B   25358.15659904  .00024779  00000+0  41479-3 0  9996",
        "tle_line2": "2 41885  34.9353 306.9755 0009294 306.3575  53.6289 15.50839760501714"
      },
      "geometry": {
        "type": "Point",
        "coordinates": [
          -66.64291972384869,
          -6.2195241836038315
        ]
      }
    },
    {
      "type": "Feature",
      "properties": {
        "norad_id": 41886,
        "name": "CYGFM02",
        "group": "weather",
        "lat": 30.79427326099943,
        "lon": -0.8952168882653418,
        "alt_km": 406.6660310687139,
        "timestamp": "2025-12-24T20:42:20.661895+00:00",
        "meta_object_name": "CYGFM02",
        "meta_object_id": "2016-078C",
        "meta_epoch": "2025-12-24T03:27:19.833120",
        "meta_mean_motion": 15.52250586,
        "meta_eccentricity": 0.00109047,
        "meta_inclination": 34.9441,
        "meta_ra_of_asc_node": 305.2353,
        "meta_arg_of_pericenter": 307.6197,
        "meta_mean_anomaly": 52.3535,
        "meta_ephemeris_type": 0,
        "meta_classification_type": "U",
        "meta_norad_cat_id": 41886,
        "meta_element_set_no": 999,
        "meta_rev_at_epoch": 50184,
        "meta_bstar": 0.00039758477,
        "meta_mean_motion_dot": 0.00025004,
        "meta_mean_motion_ddot": 0,
        "tle_line1": "1 41886U 16078C   25358.14397955  .00025004  00000+0  39758-3 0  9990",
        "tle_line2": "2 41886  34.9441 305.2353 0010904 307.6197  52.3535 15.52250586501842"
      },
      "geometry": {
        "type": "Point",
        "coordinates": [
          -0.8952168882653418,
          30.79427326099943
        ]
      }
    },
    {
      "type": "Feature",
      "properties": {
        "norad_id": 41887,
        "name": "CYGFM01",
        "group": "weather",
        "lat": 29.38181785046527,
        "lon": 23.92359895694207,
        "alt_km": 420.3012926164902,
        "timestamp": "2025-12-24T20:42:20.661906+00:00",
        "meta_object_name": "CYGFM01",
        "meta_object_id": "2016-078D",
        "meta_epoch": "2025-12-24T06:31:41.746080",
        "meta_mean_motion": 15.48651052,
        "meta_eccentricity": 0.00104085,
        "meta_inclination": 34.9436,
        "meta_ra_of_asc_node": 334.0447,
        "meta_arg_of_pericenter": 275.2665,
        "meta_mean_anomaly": 84.6869,
        "meta_ephemeris_type": 0,
        "meta_classification_type": "U",
        "meta_norad_cat_id": 41887,
        "meta_element_set_no": 999,
        "meta_rev_at_epoch": 50149,
        "meta_bstar": 0.00040597241,
        "meta_mean_motion_dot": 0.00022441,
        "meta_mean_motion_ddot": 0,
        "tle_line1": "1 41887U 16078D   25358.27201095  .00022441  00000+0  40597-3 0  9999",
        "tle_line2": "2 41887  34.9436 334.0447 0010408 275.2665  84.6869 15.48651052501497"
      },
      "geometry": {
        "type": "Point",
        "coordinates": [
          23.92359895694207,
          29.38181785046527
        ]
      }
    },
    {
      "type": "Feature",
      "properties": {
        "norad_id": 41888,
        "name": "CYGFM08",
        "group": "weather",
        "lat": 10.843875029593551,
        "lon": 117.10750622578473,
        "alt_km": 420.6522015686651,
        "timestamp": "2025-12-24T20:42:20.661917+00:00",
        "meta_object_name": "CYGFM08",
        "meta_object_id": "2016-078E",
        "meta_epoch": "2025-12-24T06:06:07.479072",
        "meta_mean_motion": 15.49887318,
        "meta_eccentricity": 0.001161,
        "meta_inclination": 34.9466,
        "meta_ra_of_asc_node": 317.0171,
        "meta_arg_of_pericenter": 298.3091,
        "meta_mean_anomaly": 61.646,
        "meta_ephemeris_type": 0,
        "meta_classification_type": "U",
        "meta_norad_cat_id": 41888,
        "meta_element_set_no": 999,
        "meta_rev_at_epoch": 50172,
        "meta_bstar": 0.00040991288,
        "meta_mean_motion_dot": 0.00023689,
        "meta_mean_motion_ddot": 0,
        "tle_line1": "1 41888U 16078E   25358.25425323  .00023689  00000+0  40991-3 0  9993",
        "tle_line2": "2 41888  34.9466 317.0171 0011610 298.3091  61.6460 15.49887318501726"
      },
      "geometry": {
        "type": "Point",
        "coordinates": [
          117.10750622578473,
          10.843875029593551
        ]
      }
    }
  ]
}